NAVSTAR 77 (USA 289)    
1 43873U 18109A   23202.26878446  .00000014  00000+0  00000+0 0  9991
2 43873  55.1818 134.1468 0024817 193.2054 331.2044  2.00567018 33729
